BUCCANEER MM            
1 63245U 25052AM  26203.64590561  .00003391  00000+0  31651-3 0  9997
2 63245  97.6820  93.9264 0005887  93.8235 266.3659 14.94839435 73899
LEMUR-2-LEIA-PHILIP     
1 63246U 25052AN  26203.42048858  .00000780  00000+0  72086-4 0  9998
2 63246  97.6785  94.7725 0005078 104.7375 255.4410 14.97397993 73941
EZIE-A                  
1 63247U 25052AP  26203.19414114  .00003567  00000+0  31017-3 0  9999
2 63247  97.6866  94.7963 0005238  82.0854 278.0962 14.97591652 73901
LEMUR-2-LIA-MARTIN      
1 63248U 25052AQ  26203.27831773  .00003286  00000+0  28273-3 0  9991
2 63248  97.6844  95.1638 0004750  72.6220 287.5521 14.98060500 73935
EZIE-C                  
1 63249U 25052AR  26203.45709652  .00004301  00000+0  37358-3 0  9995
2 63249  97.6843  94.9358 0005288  90.7140 269.4688 14.97526600 73941
EZIE-B                  
1 63250U 25052AS  26203.58671433  .00004859  00000+0  42207-3 0  9993
2 63250  97.6867  95.2415 0005865  78.1173 282.0707 14.97459174 73960
UVSQ-SAT NG             
1 63251U 25052AT  26203.45525822  .00002071  00000+0  19195-3 0  9994
2 63251  97.6811  94.2205 0004613  99.4113 260.7630 14.95531951 73900
ARVAKER-1               
1 63252U 25052AU  26203.43069385  .00001700  00000+0  16195-3 0  9995
2 63252  97.6831  93.9012 0004128  95.8501 264.3190 14.94679739 73870
ICEYE-X48               
1 63253U 25052AV  26203.25685224  .00002688  00000+0  23159-3 0  9996
2 63253  97.6844  94.9047 0004357  87.3268 272.8453 14.98159458 73921
YAM-8                   
1 63254U 25052AW  26203.44972036  .00004120  00000+0  24922-3 0  9990
2 63254  97.6907 105.1605 0003774  89.9827 270.1835 15.11204331 74594
ICEYE-X50               
1 63255U 25052AX  26203.62344234  .00001083  00000+0  10320-3 0  9996
2 63255  97.6843  94.8319 0003402  89.1287 271.0324 14.95377932 73940
FIRESAT 0 (MUSAT-4)     
1 63256U 25052AY  26203.45702354  .00000924  00000+0  94249-4 0  9995
2 63256  97.6920  93.8514 0002058 104.0227 256.1222 14.92992285 73852
ICEYE-X51               
1 63257U 25052AZ  26203.52574266  .00003747  00000+0  29904-3 0  9994
2 63257  97.7620  98.5616 0002115  63.3714 296.7726 15.00898379 74105
ICEYE-X46               
1 63258U 25052BA  26203.41940959  .00001047  00000+0  99973-4 0  9994
2 63258  97.6847  94.6313 0001510  82.5832 277.5560 14.95380853 73916
LEMUR-2-DELOITTE-1      
1 63259U 25052BB  26203.19311707  .00003845  00000+0  33200-3 0  9991
2 63259  97.6886  95.4100 0002520  55.0354 305.1105 14.97823061 73939
TRANSPORTER-13 OBJECT BC
1 63260U 25052BC  26203.23034560  .00001235  00000+0  11878-3 0  9995
2 63260  97.6800  93.8876 0001446 151.3433 208.7867 14.94765756 73861
LEMUR-2-EMERSONROSE     
1 63261U 25052BD  26203.26699631  .00003537  00000+0  29422-3 0  9996
2 63261  97.6881  96.1125 0002226  44.3122 315.8279 14.99330942 73998
LEMUR-2-MARACHE-FRAN    
1 63262U 25052BE  26203.21821514  .00003861  00000+0  31229-3 0  9997
2 63262  97.6811  96.4371 0006054 224.6548 135.4189 15.00348969 74017
SOAP                    
1 63263U 25052BF  26203.65500559  .00003199  00000+0  28334-3 0  9996
2 63263  97.6819  95.3547 0001711 153.2041 206.9269 14.96955192 73994
LEMUR-2-THEFALCONER     
1 63264U 25052BG  26203.29145350  .00003077  00000+0  26834-3 0  9999
2 63264  97.6807  95.0892 0000967 205.9281 154.1893 14.97587786 73948
STARLINK-11654 [DTC]    
1 63265U 25053A   26203.50986704  .00207138  00000+0  15692-2 0  9994
2 63265  42.9991  19.5395 0001330 262.6549  97.4168 15.70971128 78877
STARLINK-11659 [DTC]    
1 63266U 25053B   26203.50455936  .00153657  00000+0  11771-2 0  9993
2 63266  43.0001  19.4955 0001507 280.8749  79.1949 15.70878743 78876
STARLINK-11653 [DTC]    
1 63267U 25053C   26203.53110492  .00178249  00000+0  13608-2 0  9997
2 63267  43.0001  19.7082 0001708 288.1650  71.9032 15.70878542 78876
STARLINK-11641 [DTC]    
1 63268U 25053D   26203.48862719  .00203744  00000+0  15442-2 0  9995
2 63268  42.9979  19.3666 0001694 258.5537 101.5140 15.70970734 78878
STARLINK-11638 [DTC]    
1 63269U 25053E   26202.92170044  .00204343  00000+0  15548-2 0  9990
2 63269  43.0038  22.8626 0002888 314.2925  45.7706 15.70873782 78781
STARLINK-11614 [DTC]    
1 63270U 25053F   26203.52579234  .00217674  00000+0  16519-2 0  9993
2 63270  43.0027  19.6672 0002729 266.4848  93.5707 15.70896083 78873
STARLINK-11620 [DTC]    
1 63271U 25053G   26203.54172610  .00159638  00000+0  12241-2 0  9996
2 63271  43.0015  19.7952 0004608 288.0925  71.9441 15.70825260 78871
STARLINK-11619 [DTC]    
1 63272U 25053H   26203.51517476  .00196725  00000+0  14987-2 0  9994
2 63272  42.9993  19.5804 0001292 245.8199 114.2534 15.70870430 78872
STARLINK-11621 [DTC]    
1 63273U 25053J   26203.54690276  .00193914  00000+0  14729-2 0  9999
2 63273  43.0018  18.9419 0003081 254.8039 105.2488 15.70947710 78884
STARLINK-11615 [DTC]    
1 63274U 25053K   26202.88464548  .00267420  00000+0  20020-2 0  9992
2 63274  43.0032  23.4583 0006066 251.6847 108.3362 15.71053607 78779
