OBJECT_NAME,OBJECT_ID,EPOCH,MEAN_MOTION,ECCENTRICITY,INCLINATION,RA_OF_ASC_NODE,ARG_OF_PERICENTER,MEAN_ANOMALY,EPHEMERIS_TYPE,CLASSIFICATION_TYPE,NORAD_CAT_ID,ELEMENT_SET_NO,REV_AT_EPOCH,BSTAR,MEAN_MOTION_DOT,MEAN_MOTION_DDOT
BUCCANEER MM,2025-052AM,2026-07-22T15:30:06.244704,14.94839435,.00058876,97.6820,93.9264,93.8235,266.3659,0,U,63245,999,7389,.31650985E-3,.3391E-4,0
LEMUR-2-LEIA-PHILIP,2025-052AN,2026-07-22T10:05:30.213312,14.97397993,.00050787,97.6785,94.7725,104.7375,255.4410,0,U,63246,999,7394,.72086126E-4,.78E-5,0
EZIE-A,2025-052AP,2026-07-22T04:39:33.794496,14.97591652,.0005238,97.6866,94.7963,82.0854,278.0962,0,U,63247,999,7390,.31016729E-3,.3567E-4,0
LEMUR-2-LIA-MARTIN,2025-052AQ,2026-07-22T06:40:46.651872,14.98060500,.00047501,97.6844,95.1638,72.6220,287.5521,0,U,63248,999,7393,.28273444E-3,.3286E-4,0
EZIE-C,2025-052AR,2026-07-22T10:58:13.139328,14.97526600,.00052888,97.6843,94.9358,90.7140,269.4688,0,U,63249,999,7394,.37358049E-3,.4301E-4,0
EZIE-B,2025-052AS,2026-07-22T14:04:52.118112,14.97459174,.00058656,97.6867,95.2415,78.1173,282.0707,0,U,63250,999,7396,.42207028E-3,.4859E-4,0
UVSQ-SAT NG,2025-052AT,2026-07-22T10:55:34.310208,14.95531951,.00046132,97.6811,94.2205,99.4113,260.7630,0,U,63251,999,7390,.19194625E-3,.2071E-4,0
ARVAKER-1,2025-052AU,2026-07-22T10:20:11.948640,14.94679739,.00041285,97.6831,93.9012,95.8501,264.3190,0,U,63252,999,7387,.16195014E-3,.17E-4,0
ICEYE-X48,2025-052AV,2026-07-22T06:09:52.033536,14.98159458,.00043573,97.6844,94.9047,87.3268,272.8453,0,U,63253,999,7392,.23159152E-3,.2688E-4,0
YAM-8,2025-052AW,2026-07-22T10:47:35.839104,15.11204331,.00037742,97.6907,105.1605,89.9827,270.1835,0,U,63254,999,7459,.24922212E-3,.412E-4,0
ICEYE-X50,2025-052AX,2026-07-22T14:57:45.418176,14.95377932,.00034029,97.6843,94.8319,89.1287,271.0324,0,U,63255,999,7394,.10320243E-3,.1083E-4,0
FIRESAT 0 (MUSAT-4),2025-052AY,2026-07-22T10:58:06.833856,14.92992285,.00020581,97.6920,93.8514,104.0227,256.1222,0,U,63256,999,7385,.94249365E-4,.924E-5,0
ICEYE-X51,2025-052AZ,2026-07-22T12:37:04.165824,15.00898379,.00021152,97.7620,98.5616,63.3714,296.7726,0,U,63257,999,7410,.29904124E-3,.3747E-4,0
ICEYE-X46,2025-052BA,2026-07-22T10:03:56.988576,14.95380853,.000151,97.6847,94.6313,82.5832,277.5560,0,U,63258,999,7391,.99973106E-4,.1047E-4,0
LEMUR-2-DELOITTE-1,2025-052BB,2026-07-22T04:38:05.314848,14.97823061,.00025209,97.6886,95.4100,55.0354,305.1105,0,U,63259,999,7393,.33199912E-3,.3845E-4,0
TRANSPORTER-13 OBJECT BC,2025-052BC,2026-07-22T05:31:41.859840,14.94765756,.00014461,97.6800,93.8876,151.3433,208.7867,0,U,63260,999,7386,.11877777E-3,.1235E-4,0
LEMUR-2-EMERSONROSE,2025-052BD,2026-07-22T06:24:28.481184,14.99330942,.00022265,97.6881,96.1125,44.3122,315.8279,0,U,63261,999,7399,.29421975E-3,.3537E-4,0
LEMUR-2-MARACHE-FRAN,2025-052BE,2026-07-22T05:14:13.788096,15.00348969,.00060543,97.6811,96.4371,224.6548,135.4189,0,U,63262,999,7401,.3122921E-3,.3861E-4,0
SOAP,2025-052BF,2026-07-22T15:43:12.482976,14.96955192,.00017111,97.6819,95.3547,153.2041,206.9269,0,U,63263,999,7399,.28333593E-3,.3199E-4,0
LEMUR-2-THEFALCONER,2025-052BG,2026-07-22T06:59:41.582400,14.97587786,.00009671,97.6807,95.0892,205.9281,154.1893,0,U,63264,999,7394,.26833751E-3,.3077E-4,0
STARLINK-11654 [DTC],2025-053A,2026-07-22T12:14:12.512256,15.70971128,.000133,42.9991,19.5395,262.6549,97.4168,0,U,63265,999,7887,.15692137E-2,.207138E-2,0
STARLINK-11659 [DTC],2025-053B,2026-07-22T12:06:33.928704,15.70878743,.00015071,43.0001,19.4955,280.8749,79.1949,0,U,63266,999,7887,.11770581E-2,.153657E-2,0
STARLINK-11653 [DTC],2025-053C,2026-07-22T12:44:47.465088,15.70878542,.00017082,43.0001,19.7082,288.1650,71.9032,0,U,63267,999,7887,.13608325E-2,.178249E-2,0
STARLINK-11641 [DTC],2025-053D,2026-07-22T11:43:37.389216,15.70970734,.00016942,42.9979,19.3666,258.5537,101.5140,0,U,63268,999,7887,.15442095E-2,.203744E-2,0
STARLINK-11638 [DTC],2025-053E,2026-07-21T22:07:14.918016,15.70873782,.00028883,43.0038,22.8626,314.2925,45.7706,0,U,63269,999,7878,.15548255E-2,.204343E-2,0
STARLINK-11614 [DTC],2025-053F,2026-07-22T12:37:08.458176,15.70896083,.0002729,43.0027,19.6672,266.4848,93.5707,0,U,63270,999,7887,.16518504E-2,.217674E-2,0
STARLINK-11620 [DTC],2025-053G,2026-07-22T13:00:05.135040,15.70825260,.00046088,43.0015,19.7952,288.0925,71.9441,0,U,63271,999,7887,.12241283E-2,.159638E-2,0
STARLINK-11619 [DTC],2025-053H,2026-07-22T12:21:51.099264,15.70870430,.00012928,42.9993,19.5804,245.8199,114.2534,0,U,63272,999,7887,.14987023E-2,.196725E-2,0
STARLINK-11621 [DTC],2025-053J,2026-07-22T13:07:32.398464,15.70947710,.00030812,43.0018,18.9419,254.8039,105.2488,0,U,63273,999,7888,.14728992E-2,.193914E-2,0
STARLINK-11615 [DTC],2025-053K,2026-07-21T21:13:53.369472,15.71053607,.00060663,43.0032,23.4583,251.6847,108.3362,0,U,63274,999,7877,.20019661E-2,.26742E-2,0
